start=new Date('2021-08-24T00:00:00.000Z').valueOf();
sats=[{"ECCENTRICITY":"0.00015080","REV_AT_EPOCH":"4187","REF_FRAME":"TEME","TLE_LINE2":"2 47148  53.0557 180.7543 0001508  62.3626 297.7516 15.06400027 41870","NORAD_CAT_ID":"47148","EPHEMERIS_TYPE":"0","ARG_OF_PERICENTER":"62.3626","MEAN_ELEMENT_THEORY":"SGP4","APOAPSIS":"548.258","BSTAR":"0.00001553400000","MEAN_MOTION":"15.06400027","DECAY_DATE":null,"ELEMENT_SET_NO":"999","TIME_SYSTEM":"UTC","INCLINATION":"53.0557","SEMIMAJOR_AXIS":"6925.348","EPOCH":"2021-08-23T07:57:19.606752","PERIAPSIS":"546.169","SITE":"AFETR","PERIOD":"95.592","RCS_SIZE":"LARGE","MEAN_ANOMALY":"297.7516","LAUNCH_DATE":"2020-11-25","OBJECT_TYPE":"PAYLOAD","TLE_LINE1":"1 47148U 20088AC  21235.33147693 -.00000050  00000-0  15534-4 0  9999","MEAN_MOTION_DDOT":"0.0000000000000","FILE":"3101910","COUNTRY_CODE":"US","CENTER_NAME":"EARTH","CLASSIFICATION_TYPE":"U","OBJECT_ID":"2020-088AC","GP_ID":"183302416","MEAN_MOTION_DOT":"-0.00000050","OBJECT_NAME":"STARLINK-1861","RA_OF_ASC_NODE":"180.7543"},{"PERIAPSIS":"546.090","SITE":"AFETR","RCS_SIZE":"LARGE","PERIOD":"95.592","ELEMENT_SET_NO":"999","MEAN_MOTION":"15.06400250","DECAY_DATE":null,"TIME_SYSTEM":"UTC","INCLINATION":"53.0553","EPOCH":"2021-08-23T07:02:55.093344","SEMIMAJOR_AXIS":"6925.348","NORAD_CAT_ID":"47149","MEAN_ELEMENT_THEORY":"SGP4","ARG_OF_PERICENTER":"62.6676","EPHEMERIS_TYPE":"0","BSTAR":"0.00001565700000","APOAPSIS":"548.335","ECCENTRICITY":"0.00016210","REV_AT_EPOCH":"4246","REF_FRAME":"TEME","TLE_LINE2":"2 47149  53.0553 190.9411 0001621  62.6676 297.4478 15.06400250 42466","GP_ID":"183303667","MEAN_MOTION_DOT":"-0.00000048","OBJECT_NAME":"STARLINK-1862","RA_OF_ASC_NODE":"190.9411","CLASSIFICATION_TYPE":"U","OBJECT_ID":"2020-088AD","FILE":"3101910","MEAN_MOTION_DDOT":"0.0000000000000","COUNTRY_CODE":"US","CENTER_NAME":"EARTH","MEAN_ANOMALY":"297.4478","OBJECT_TYPE":"PAYLOAD","LAUNCH_DATE":"2020-11-25","TLE_LINE1":"1 47149U 20088AD  21235.29369321 -.00000048  00000-0  15657-4 0  9992"},{"SITE":"AFETR","PERIAPSIS":"546.116","RCS_SIZE":"LARGE","PERIOD":"95.593","TIME_SYSTEM":"UTC","ELEMENT_SET_NO":"999","DECAY_DATE":null,"MEAN_MOTION":"15.06389790","EPOCH":"2021-08-23T13:15:48.489120","SEMIMAJOR_AXIS":"6925.380","INCLINATION":"53.0554","NORAD_CAT_ID":"47150","BSTAR":"-0.00005166100000","APOAPSIS":"548.374","ARG_OF_PERICENTER":"65.5220","MEAN_ELEMENT_THEORY":"SGP4","EPHEMERIS_TYPE":"0","REV_AT_EPOCH":"4191","ECCENTRICITY":"0.00016300","TLE_LINE2":"2 47150  53.0554 179.7815 0001630  65.5220 294.5939 15.06389790 41913","REF_FRAME":"TEME","MEAN_MOTION_DOT":"-0.00001051","GP_ID":"183303418","RA_OF_ASC_NODE":"179.7815","OBJECT_NAME":"STARLINK-1863","CLASSIFICATION_TYPE":"U","OBJECT_ID":"2020-088AE","COUNTRY_CODE":"US","FILE":"3101910","MEAN_MOTION_DDOT":"0.0000000000000","CENTER_NAME":"EARTH","MEAN_ANOMALY":"294.5939","TLE_LINE1":"1 47150U 20088AE  21235.55264455 -.00001051  00000-0 -51661-4 0  9996","OBJECT_TYPE":"PAYLOAD","LAUNCH_DATE":"2020-11-25"},{"LAUNCH_DATE":"2020-11-25","OBJECT_TYPE":"PAYLOAD","TLE_LINE1":"1 47151U 20088AF  21235.68441251 -.00001194  00000-0 -61279-4 0  9996","MEAN_ANOMALY":"297.8866","CENTER_NAME":"EARTH","MEAN_MOTION_DDOT":"0.0000000000000","FILE":"3102124","COUNTRY_CODE":"US","OBJECT_ID":"2020-088AF","CLASSIFICATION_TYPE":"U","OBJECT_NAME":"STARLINK-1864","RA_OF_ASC_NODE":"189.1786","GP_ID":"183331112","MEAN_MOTION_DOT":"-0.00001194","REF_FRAME":"TEME","TLE_LINE2":"2 47151  53.0547 189.1786 0001380  62.2263 297.8866 15.06390068 41781","ECCENTRICITY":"0.00013800","REV_AT_EPOCH":"4178","EPHEMERIS_TYPE":"0","MEAN_ELEMENT_THEORY":"SGP4","ARG_OF_PERICENTER":"62.2263","APOAPSIS":"548.200","BSTAR":"-0.00006127900000","NORAD_CAT_ID":"47151","INCLINATION":"53.0547","SEMIMAJOR_AXIS":"6925.379","EPOCH":"2021-08-23T16:25:33.240864","MEAN_MOTION":"15.06390068","DECAY_DATE":null,"ELEMENT_SET_NO":"999","TIME_SYSTEM":"UTC","PERIOD":"95.593","RCS_SIZE":"LARGE","PERIAPSIS":"546.288","SITE":"AFETR"},{"ECCENTRICITY":"0.00015130","REV_AT_EPOCH":"4177","REF_FRAME":"TEME","TLE_LINE2":"2 47152  53.0544 189.5570 0001513  50.8074 309.3049 15.06402076 41779","NORAD_CAT_ID":"47152","EPHEMERIS_TYPE":"0","MEAN_ELEMENT_THEORY":"SGP4","ARG_OF_PERICENTER":"50.8074","APOAPSIS":"548.255","BSTAR":"0.00007226400000","DECAY_DATE":null,"MEAN_MOTION":"15.06402076","ELEMENT_SET_NO":"999","TIME_SYSTEM":"UTC","INCLINATION":"53.0544","SEMIMAJOR_AXIS":"6925.342","EPOCH":"2021-08-23T14:28:46.708896","PERIAPSIS":"546.159","SITE":"AFETR","PERIOD":"95.592","RCS_SIZE":"LARGE","MEAN_ANOMALY":"309.3049","LAUNCH_DATE":"2020-11-25","OBJECT_TYPE":"PAYLOAD","TLE_LINE1":"1 47152U 20088AG  21235.60331839  .00000795  00000-0  72264-4 0  9999","MEAN_MOTION_DDOT":"0.0000000000000","FILE":"3102124","COUNTRY_CODE":"US","CENTER_NAME":"EARTH","CLASSIFICATION_TYPE":"U","OBJECT_ID":"2020-088AG","GP_ID":"183331363","MEAN_MOTION_DOT":"0.00000795","OBJECT_NAME":"STARLINK-1866","RA_OF_ASC_NODE":"189.5570"},{"PERIOD":"95.593","RCS_SIZE":"LARGE","PERIAPSIS":"546.219","SITE":"AFETR","INCLINATION":"53.0556","SEMIMAJOR_AXIS":"6925.369","EPOCH":"2021-08-23T13:52:14.870496","DECAY_DATE":null,"MEAN_MOTION":"15.06393242","ELEMENT_SET_NO":"999","TIME_SYSTEM":"UTC","EPHEMERIS_TYPE":"0","ARG_OF_PERICENTER":"41.4439","MEAN_ELEMENT_THEORY":"SGP4","APOAPSIS":"548.250","BSTAR":"0.00006105800000","NORAD_CAT_ID":"47153","REF_FRAME":"TEME","TLE_LINE2":"2 47153  53.0556 194.6655 0001466  41.4439 318.6660 15.06393242 41958","ECCENTRICITY":"0.00014660","REV_AT_EPOCH":"4195","OBJECT_NAME":"STARLINK-1867","RA_OF_ASC_NODE":"194.6655","GP_ID":"183307133","MEAN_MOTION_DOT":"0.00000628","OBJECT_ID":"2020-088AH","CLASSIFICATION_TYPE":"U","CENTER_NAME":"EARTH","MEAN_MOTION_DDOT":"0.0000000000000","FILE":"3102063","COUNTRY_CODE":"US","LAUNCH_DATE":"2020-11-25","OBJECT_TYPE":"PAYLOAD","TLE_LINE1":"1 47153U 20088AH  21235.57794989  .00000628  00000-0  61058-4 0  9999","MEAN_ANOMALY":"318.6660"},{"MEAN_ANOMALY":"295.7797","TLE_LINE1":"1 47154U 20088AJ  21235.57475903 -.00000845  00000-0 -37851-4 0  9999","OBJECT_TYPE":"PAYLOAD","LAUNCH_DATE":"2020-11-25","COUNTRY_CODE":"US","FILE":"3102045","MEAN_MOTION_DDOT":"0.0000000000000","CENTER_NAME":"EARTH","CLASSIFICATION_TYPE":"U","OBJECT_ID":"2020-088AJ","MEAN_MOTION_DOT":"-0.00000845","GP_ID":"183307725","RA_OF_ASC_NODE":"179.6870","OBJECT_NAME":"STARLINK-1868","REV_AT_EPOCH":"4216","ECCENTRICITY":"0.00019990","TLE_LINE2":"2 47154  53.0555 179.6870 0001999  64.3398 295.7797 15.06393192 42163","REF_FRAME":"TEME","NORAD_CAT_ID":"47154","BSTAR":"-0.00003785100000","APOAPSIS":"548.619","ARG_OF_PERICENTER":"64.3398","MEAN_ELEMENT_THEORY":"SGP4","EPHEMERIS_TYPE":"0","TIME_SYSTEM":"UTC","ELEMENT_SET_NO":"999","DECAY_DATE":null,"MEAN_MOTION":"15.06393192","EPOCH":"2021-08-23T13:47:39.180192","SEMIMAJOR_AXIS":"6925.369","INCLINATION":"53.0555","SITE":"AFETR","PERIAPSIS":"545.850","RCS_SIZE":"LARGE","PERIOD":"95.593"},{"CENTER_NAME":"EARTH","MEAN_MOTION_DDOT":"0.0000000000000","FILE":"3102124","COUNTRY_CODE":"US","LAUNCH_DATE":"2020-11-25","OBJECT_TYPE":"PAYLOAD","TLE_LINE1":"1 47155U 20088AK  21235.94150110  .00000581  00000-0  57885-4 0  9995","MEAN_ANOMALY":"304.6959","OBJECT_NAME":"STARLINK-1869","RA_OF_ASC_NODE":"198.0344","GP_ID":"183330612","MEAN_MOTION_DOT":"0.00000581","OBJECT_ID":"2020-088AK","CLASSIFICATION_TYPE":"U","EPHEMERIS_TYPE":"0","MEAN_ELEMENT_THEORY":"SGP4","ARG_OF_PERICENTER":"55.4145","APOAPSIS":"548.031","BSTAR":"0.00005788500000","NORAD_CAT_ID":"47155","REF_FRAME":"TEME","TLE_LINE2":"2 47155  53.0528 198.0344 0001217  55.4145 304.6959 15.06408384 41685","ECCENTRICITY":"0.00012170","REV_AT_EPOCH":"4168","PERIOD":"95.592","RCS_SIZE":"LARGE","PERIAPSIS":"546.345","SITE":"AFETR","INCLINATION":"53.0528","SEMIMAJOR_AXIS":"6925.323","EPOCH":"2021-08-23T22:35:45.695040","DECAY_DATE":null,"MEAN_MOTION":"15.06408384","ELEMENT_SET_NO":"999","TIME_SYSTEM":"UTC"},{"TIME_SYSTEM":"UTC","DECAY_DATE":null,"MEAN_MOTION":"15.33567323","ELEMENT_SET_NO":"999","SEMIMAJOR_AXIS":"6843.316","EPOCH":"2021-08-23T22:33:33.681888","INCLINATION":"53.0554","SITE":"AFETR","PERIAPSIS":"463.977","PERIOD":"93.899","RCS_SIZE":"LARGE","REV_AT_EPOCH":"4251","ECCENTRICITY":"0.00017600","TLE_LINE2":"2 47156  53.0554 139.6194 0001760  51.3559 308.7599 15.33567323 42513","REF_FRAME":"TEME","NORAD_CAT_ID":"47156","APOAPSIS":"466.386","BSTAR":"-0.00000603260000","EPHEMERIS_TYPE":"0","ARG_OF_PERICENTER":"51.3559","MEAN_ELEMENT_THEORY":"SGP4","CLASSIFICATION_TYPE":"U","OBJECT_ID":"2020-088AL","MEAN_MOTION_DOT":"-0.00000572","GP_ID":"183330863","RA_OF_ASC_NODE":"139.6194","OBJECT_NAME":"STARLINK-1870","MEAN_ANOMALY":"308.7599","TLE_LINE1":"1 47156U 20088AL  21235.93997317 -.00000572  00000-0 -60326-5 0  9990","LAUNCH_DATE":"2020-11-25","OBJECT_TYPE":"PAYLOAD","COUNTRY_CODE":"US","MEAN_MOTION_DDOT":"0.0000000000000","FILE":"3102124","CENTER_NAME":"EARTH"},{"MEAN_MOTION":"15.06408160","DECAY_DATE":null,"ELEMENT_SET_NO":"999","TIME_SYSTEM":"UTC","INCLINATION":"53.0547","SEMIMAJOR_AXIS":"6925.324","EPOCH":"2021-08-23T13:56:56.112864","PERIAPSIS":"546.206","SITE":"AFETR","PERIOD":"95.592","RCS_SIZE":"LARGE","ECCENTRICITY":"0.00014190","REV_AT_EPOCH":"4202","REF_FRAME":"TEME","TLE_LINE2":"2 47157  53.0547 189.6555 0001419  50.7959 309.3156 15.06408160 42025","NORAD_CAT_ID":"47157","EPHEMERIS_TYPE":"0","ARG_OF_PERICENTER":"50.7959","MEAN_ELEMENT_THEORY":"SGP4","APOAPSIS":"548.171","BSTAR":"0.00006988900000","CLASSIFICATION_TYPE":"U","OBJECT_ID":"2020-088AM","GP_ID":"183306834","MEAN_MOTION_DOT":"0.00000760","OBJECT_NAME":"STARLINK-1871","RA_OF_ASC_NODE":"189.6555","MEAN_ANOMALY":"309.3156","LAUNCH_DATE":"2020-11-25","OBJECT_TYPE":"PAYLOAD","TLE_LINE1":"1 47157U 20088AM  21235.58120501  .00000760  00000-0  69889-4 0  9994","MEAN_MOTION_DDOT":"0.0000000000000","FILE":"3102023","COUNTRY_CODE":"US","CENTER_NAME":"EARTH"}];
